[
    {
        "Altitude(m)": 607911.0237590818,
        "Argument of Periapsis(deg)": 0.0,
        "Eccentricity": 0.0,
        "Inclination(deg)": 60.0,
        "Latitude(deg)": -14.293027229148462,
        "Longitude(deg)": -56.557335826380715,
        "Mean Anomaly(deg)": -163.6364,
        "RAAN(deg)": 215.0,
        "Satellite Name": "Test1 958",
        "Satellite Number": 958,
        "Semi-Major Axis(m)": 6980739.136638005,
        "Time(s)": 0
    },
    {
        "Altitude(m)": 608060.2577928753,
        "Argument of Periapsis(deg)": 0.00010418945913296404,
        "Eccentricity": 0.0,
        "Inclination(deg)": 60.0,
        "Latitude(deg)": -14.82668829234024,
        "Longitude(deg)": -56.26872562718147,
        "Mean Anomaly(deg)": -163.01629385453822,
        "RAAN(deg)": 214.99957995086024,
        "Satellite Name": "Test1 958",
        "Satellite Number": 958,
        "Semi-Major Axis(m)": 6980739.136638005,
        "Time(s)": 10
    }
]